{
    "links": {
        "self": "http://www.neowsapp.com/rest/v1/neo/54017685?api_key=iIulBulltgU6a56xZRHN4H3l9WmuAYTsLGpBGhQ2"
    },
    "id": "54017685",
    "neo_reference_id": "54017685",
    "name": "(2020 LS2)",
    "designation": "2020 LS2",
    "nasa_jpl_url": "http://ssd.jpl.nasa.gov/sbdb.cgi?sstr=54017685",
    "absolute_magnitude_h": 23.565,
    "estimated_diameter": {
        "kilometers": {
            "estimated_diameter_min": 0.0514700958,
            "estimated_diameter_max": 0.115090633
        },
        "meters": {
            "estimated_diameter_min": 51.4700958017,
            "estimated_diameter_max": 115.090633021
        },
        "miles": {
            "estimated_diameter_min": 0.0319820249,
            "estimated_diameter_max": 0.0715139817
        },
        "feet": {
            "estimated_diameter_min": 168.8651491101,
            "estimated_diameter_max": 377.5939524407
        }
    },
    "is_potentially_hazardous_asteroid": false,
    "close_approach_data": [
        {
            "close_approach_date": "2013-06-10",
            "close_approach_date_full": "2013-Jun-10 03:46",
            "epoch_date_close_approach": 1370835960000,
            "relative_velocity": {
                "kilometers_per_second": "3.2223102327",
                "kilometers_per_hour": "11600.3168375594",
                "miles_per_hour": "7207.9857594268"
            },
            "miss_distance": {
                "astronomical": "0.414232643",
                "lunar": "161.136498127",
                "kilometers": "61968321.07727041",
                "miles": "38505329.201575258"
            },
            "orbiting_body": "Earth"
        },
        {
            "close_approach_date": "2020-06-30",
            "close_approach_date_full": "2020-Jun-30 16:59",
            "epoch_date_close_approach": 1593536340000,
            "relative_velocity": {
                "kilometers_per_second": "3.2122498808",
                "kilometers_per_hour": "11564.0995708086",
                "miles_per_hour": "7185.4817583171"
            },
            "miss_distance": {
                "astronomical": "0.2444494321",
                "lunar": "95.0908290869",
                "kilometers": "36569114.364869627",
                "miles": "22722993.9870977726"
            },
            "orbiting_body": "Earth"
        },
        {
            "close_approach_date": "2025-09-08",
            "close_approach_date_full": "2025-Sep-08 14:03",
            "epoch_date_close_approach": 1757340180000,
            "relative_velocity": {
                "kilometers_per_second": "1.3685782689",
                "kilometers_per_hour": "4926.8817678744",
                "miles_per_hour": "3061.3727295995"
            },
            "miss_distance": {
                "astronomical": "1.8572958087",
                "lunar": "722.4880695843",
                "kilometers": "277847496.941447469",
                "miles": "172646428.8781303122"
            },
            "orbiting_body": "Juptr"
        },
        {
            "close_approach_date": "2027-07-26",
            "close_approach_date_full": "2027-Jul-26 03:41",
            "epoch_date_close_approach": 1816573260000,
            "relative_velocity": {
                "kilometers_per_second": "2.2006276898",
                "kilometers_per_hour": "7922.2596832793",
                "miles_per_hour": "4922.5840793132"
            },
            "miss_distance": {
                "astronomical": "0.4613669867",
                "lunar": "179.4717578263",
                "kilometers": "69019518.498638329",
                "miles": "42886740.1104897802"
            },
            "orbiting_body": "Earth"
        }
    ],
    "orbital_data": {
        "orbit_id": "2",
        "orbit_determination_date": "2020-07-14 06:40:17",
        "first_observation_date": "2020-06-15",
        "last_observation_date": "2020-07-13",
        "data_arc_in_days": 28,
        "observations_used": 15,
        "orbit_uncertainty": "6",
        "minimum_orbit_intersection": ".233997",
        "jupiter_tisserand_invariant": "3.451",
        "epoch_osculation": "2459000.5",
        "eccentricity": ".4561213134108378",
        "semi_major_axis": "2.29047729734816",
        "inclination": "3.311838442457793",
        "ascending_node_longitude": "321.7227743185254",
        "orbital_period": "1266.156573740777",
        "perihelion_distance": "1.245741784144011",
        "perihelion_argument": "313.6899145820873",
        "aphelion_distance": "3.335212810552308",
        "perihelion_time": "2459023.089792699093",
        "mean_anomaly": "353.5771566168573",
        "mean_motion": ".2843250254085113",
        "equinox": "J2000",
        "orbit_class": {
            "orbit_class_type": "AMO",
            "orbit_class_description": "Near-Earth asteroid orbits similar to that of 1221 Amor",
            "orbit_class_range": "1.017 AU < q (perihelion) < 1.3 AU"
        }
    },
    "is_sentry_object": false
}